[
	{
		"First": "Pascale",
		"Last": "Hood",
		"Address": "827-448 Magna Rd.",
		"City": "Burlington",
		"Zip": "38459",
		"ID": "71480845"
	},
	{
		"First": "Odette",
		"Last": "Rich",
		"Address": "7923 Pede. Rd.",
		"City": "Bothey",
		"Zip": "14394",
		"ID": "65839483"
	},
	{
		"First": "Christen",
		"Last": "Hardin",
		"Address": "390-1605 Adipiscing Street",
		"City": "Oudergem",
		"Zip": "90085",
		"ID": "78046404"
	},
	{
		"First": "Uma",
		"Last": "Cunningham",
		"Address": "313-1839 Lorem Av.",
		"City": "San Cristóbal de la Laguna",
		"Zip": "99153",
		"ID": "27367690"
	},
	{
		"First": "Cassandra",
		"Last": "Williams",
		"Address": "6007 Nec, Av.",
		"City": "Fort Worth",
		"Zip": "58115",
		"ID": "97189863"
	},
	{
		"First": "Sybill",
		"Last": "Burris",
		"Address": "5855 Suspendisse Ave",
		"City": "Burnaby",
		"Zip": "87267",
		"ID": "69101159"
	},
	{
		"First": "Calvin",
		"Last": "Gentry",
		"Address": "P.O. Box 670, 1497 Metus. Street",
		"City": "Aurora",
		"Zip": "71682",
		"ID": "38729397"
	},
	{
		"First": "Cassidy",
		"Last": "Schroeder",
		"Address": "Ap #147-5847 Aptent Street",
		"City": "Stirling",
		"Zip": "48422",
		"ID": "48779085"
	},
	{
		"First": "Geoffrey",
		"Last": "Arnold",
		"Address": "Ap #430-5761 Pellentesque Avenue",
		"City": "Cavasso Nuovo",
		"Zip": "73263",
		"ID": "56738019"
	},
	{
		"First": "Brenda",
		"Last": "Decker",
		"Address": "Ap #490-7331 Non, Street",
		"City": "Antey-Saint-Andrè",
		"Zip": "93584",
		"ID": "87089063"
	},
	{
		"First": "Mufutau",
		"Last": "Peters",
		"Address": "486-4330 Mauris, St.",
		"City": "Massello",
		"Zip": "56747",
		"ID": "18533897"
	},
	{
		"First": "Gage",
		"Last": "Rush",
		"Address": "Ap #690-1157 Feugiat Rd.",
		"City": "Okotoks",
		"Zip": "49278",
		"ID": "50721975"
	},
	{
		"First": "Craig",
		"Last": "Le",
		"Address": "P.O. Box 182, 7815 Integer St.",
		"City": "Gagliano del Capo",
		"Zip": "85895",
		"ID": "57131607"
	},
	{
		"First": "Lee",
		"Last": "Kim",
		"Address": "8750 Aliquam Rd.",
		"City": "Pi�trebais",
		"Zip": "69991",
		"ID": "75691101"
	},
	{
		"First": "Kennan",
		"Last": "Ashley",
		"Address": "Ap #733-8194 Aliquam Street",
		"City": "San Antonio",
		"Zip": "68179",
		"ID": "46301250"
	},
	{
		"First": "Chastity",
		"Last": "Tillman",
		"Address": "Ap #216-8765 Sagittis Avenue",
		"City": "Périgueux",
		"Zip": "58660",
		"ID": "52451618"
	},
	{
		"First": "Chaney",
		"Last": "Morin",
		"Address": "143-6017 Faucibus Road",
		"City": "Maser",
		"Zip": "50557",
		"ID": "09791742"
	},
	{
		"First": "Orla",
		"Last": "Harvey",
		"Address": "1125 Luctus Road",
		"City": "Fermont",
		"Zip": "44035",
		"ID": "04221463"
	},
	{
		"First": "Rachel",
		"Last": "Rios",
		"Address": "2880 Ultricies Road",
		"City": "Norman",
		"Zip": "56767",
		"ID": "43820244"
	},
	{
		"First": "Claire",
		"Last": "Frederick",
		"Address": "Ap #571-1483 Ante. Ave",
		"City": "Workum",
		"Zip": "76489",
		"ID": "58735573"
	},
	{
		"First": "Sonia",
		"Last": "Diaz",
		"Address": "Ap #686-2117 Sapien. Road",
		"City": "Sint-Genesius-Rode",
		"Zip": "89144",
		"ID": "33475020"
	},
	{
		"First": "Shana",
		"Last": "Shields",
		"Address": "Ap #909-4518 Nisl St.",
		"City": "Hartlepool",
		"Zip": "93344",
		"ID": "38368735"
	},
	{
		"First": "Mara",
		"Last": "Hughes",
		"Address": "641-5409 Lorem, Road",
		"City": "Llanelli",
		"Zip": "11189",
		"ID": "70362411"
	},
	{
		"First": "Jasper",
		"Last": "Harmon",
		"Address": "312-5704 A St.",
		"City": "Schwechat",
		"Zip": "95829",
		"ID": "76213649"
	},
	{
		"First": "Barclay",
		"Last": "Johnson",
		"Address": "133-8074 Malesuada Rd.",
		"City": "Lac La Biche County",
		"Zip": "72918",
		"ID": "39278400"
	},
	{
		"First": "Hilary",
		"Last": "Beck",
		"Address": "P.O. Box 591, 5741 Dui Ave",
		"City": "Lexington",
		"Zip": "43428",
		"ID": "35683334"
	},
	{
		"First": "James",
		"Last": "Frost",
		"Address": "P.O. Box 141, 1359 Elementum, St.",
		"City": "Castellana Sicula",
		"Zip": "94437",
		"ID": "18528224"
	},
	{
		"First": "Quentin",
		"Last": "Pickett",
		"Address": "P.O. Box 306, 8559 Pellentesque Road",
		"City": "Armo",
		"Zip": "81173",
		"ID": "30368579"
	},
	{
		"First": "Ivy",
		"Last": "Byers",
		"Address": "P.O. Box 629, 5514 Purus St.",
		"City": "Villafranca d'Asti",
		"Zip": "59234",
		"ID": "33311723"
	},
	{
		"First": "Uriah",
		"Last": "Ferguson",
		"Address": "P.O. Box 351, 9861 Amet Av.",
		"City": "Cap-Rouge",
		"Zip": "73591",
		"ID": "86498504"
	},
	{
		"First": "Paloma",
		"Last": "Forbes",
		"Address": "6570 Vel Street",
		"City": "Roxboro",
		"Zip": "31629",
		"ID": "40043124"
	},
	{
		"First": "Christian",
		"Last": "Cross",
		"Address": "Ap #195-6582 Nulla. Street",
		"City": "Borsbeek",
		"Zip": "22054",
		"ID": "10783510"
	},
	{
		"First": "Fleur",
		"Last": "Arnold",
		"Address": "173-2422 Non Rd.",
		"City": "Nieuwkerken-Waas",
		"Zip": "51386",
		"ID": "50474735"
	},
	{
		"First": "Joel",
		"Last": "Townsend",
		"Address": "P.O. Box 209, 2254 Morbi St.",
		"City": "Schore",
		"Zip": "67104",
		"ID": "65565196"
	},
	{
		"First": "Jin",
		"Last": "Mcintyre",
		"Address": "P.O. Box 978, 2758 Tellus Avenue",
		"City": "Rochester",
		"Zip": "26177",
		"ID": "96784896"
	},
	{
		"First": "Avram",
		"Last": "Goodman",
		"Address": "P.O. Box 886, 6688 Erat. Rd.",
		"City": "Meerdonk",
		"Zip": "81620",
		"ID": "03161081"
	},
	{
		"First": "Liberty",
		"Last": "Torres",
		"Address": "P.O. Box 812, 3054 Tempor St.",
		"City": "Korbach",
		"Zip": "87908",
		"ID": "85316825"
	},
	{
		"First": "Regina",
		"Last": "Cross",
		"Address": "P.O. Box 353, 2502 Molestie Rd.",
		"City": "Jemeppe-sur-Sambre",
		"Zip": "76345",
		"ID": "32824932"
	},
	{
		"First": "Kirk",
		"Last": "Wiggins",
		"Address": "8203 Dui. Av.",
		"City": "Welland",
		"Zip": "43267",
		"ID": "89661721"
	},
	{
		"First": "Dexter",
		"Last": "Watson",
		"Address": "P.O. Box 813, 2064 Quisque Rd.",
		"City": "Monteroni d'Arbia",
		"Zip": "92300",
		"ID": "42701880"
	},
	{
		"First": "Kadeem",
		"Last": "Contreras",
		"Address": "Ap #560-2469 Ipsum Avenue",
		"City": "Wandre",
		"Zip": "49758",
		"ID": "23523031"
	},
	{
		"First": "Malachi",
		"Last": "Mccarthy",
		"Address": "Ap #843-6186 Gravida Street",
		"City": "Cherain",
		"Zip": "88918",
		"ID": "59170045"
	},
	{
		"First": "Cullen",
		"Last": "Frank",
		"Address": "Ap #189-7788 Cursus Avenue",
		"City": "Nieuwmunster",
		"Zip": "24625",
		"ID": "19474723"
	},
	{
		"First": "Beverly",
		"Last": "Sherman",
		"Address": "Ap #693-6990 Erat Av.",
		"City": "Montecarotto",
		"Zip": "71818",
		"ID": "95926987"
	},
	{
		"First": "Brendan",
		"Last": "Hyde",
		"Address": "Ap #656-6967 Eu St.",
		"City": "Landelies",
		"Zip": "22671",
		"ID": "91779556"
	},
	{
		"First": "Julian",
		"Last": "Leblanc",
		"Address": "P.O. Box 934, 3835 Egestas. Rd.",
		"City": "Incourt",
		"Zip": "79265",
		"ID": "37489555"
	},
	{
		"First": "Quemby",
		"Last": "Gallagher",
		"Address": "167-8199 Nunc St.",
		"City": "Werbomont",
		"Zip": "77262",
		"ID": "22380809"
	},
	{
		"First": "Ora",
		"Last": "Case",
		"Address": "4581 Auctor St.",
		"City": "Kansas City",
		"Zip": "61542",
		"ID": "45028933"
	},
	{
		"First": "Holmes",
		"Last": "Hunt",
		"Address": "8647 Sagittis. Rd.",
		"City": "Anjou",
		"Zip": "49668",
		"ID": "40467619"
	},
	{
		"First": "Kaseem",
		"Last": "Battle",
		"Address": "768-6887 Lorem Rd.",
		"City": "Cromer",
		"Zip": "63930",
		"ID": "71826084"
	},
	{
		"First": "Ariana",
		"Last": "Gonzales",
		"Address": "4897 Sit Rd.",
		"City": "Perchtoldsdorf",
		"Zip": "53879",
		"ID": "24274427"
	},
	{
		"First": "Tate",
		"Last": "Mills",
		"Address": "318 Vitae Av.",
		"City": "Sète",
		"Zip": "89554",
		"ID": "28329775"
	},
	{
		"First": "Wayne",
		"Last": "Scott",
		"Address": "7656 Aenean St.",
		"City": "Newbury",
		"Zip": "59278",
		"ID": "46545183"
	},
	{
		"First": "Alexa",
		"Last": "Lynch",
		"Address": "1758 Mauris Rd.",
		"City": "Zuienkerke",
		"Zip": "89424",
		"ID": "53792513"
	},
	{
		"First": "Louis",
		"Last": "Castillo",
		"Address": "P.O. Box 431, 5809 Ac Ave",
		"City": "Stratford-upon-Avon",
		"Zip": "86402",
		"ID": "31337795"
	},
	{
		"First": "Laith",
		"Last": "Hyde",
		"Address": "568-9550 Id Rd.",
		"City": "Gellik",
		"Zip": "42509",
		"ID": "50578271"
	},
	{
		"First": "Jorden",
		"Last": "May",
		"Address": "624-3453 Tortor Avenue",
		"City": "Sint-Pauwels",
		"Zip": "99571",
		"ID": "48993428"
	},
	{
		"First": "Erich",
		"Last": "Tyson",
		"Address": "248-298 Sem Rd.",
		"City": "Assen",
		"Zip": "56781",
		"ID": "31590436"
	},
	{
		"First": "Winifred",
		"Last": "Pace",
		"Address": "Ap #452-2768 Fusce Ave",
		"City": "Lanark County",
		"Zip": "85780",
		"ID": "35525046"
	},
	{
		"First": "Amos",
		"Last": "Klein",
		"Address": "5168 At Av.",
		"City": "Namur",
		"Zip": "40155",
		"ID": "57654020"
	},
	{
		"First": "Cally",
		"Last": "Battle",
		"Address": "185 Auctor. St.",
		"City": "Loppem",
		"Zip": "10755",
		"ID": "76886365"
	},
	{
		"First": "Savannah",
		"Last": "Shepherd",
		"Address": "946-3414 Dictum Street",
		"City": "Alma",
		"Zip": "19473",
		"ID": "45865084"
	},
	{
		"First": "Ann",
		"Last": "Daniel",
		"Address": "775-9370 Aenean St.",
		"City": "Chetwynd",
		"Zip": "42183",
		"ID": "82768008"
	},
	{
		"First": "Amy",
		"Last": "Fuller",
		"Address": "420-1311 Massa. Ave",
		"City": "Fontaine-Valmont",
		"Zip": "40121",
		"ID": "06133350"
	},
	{
		"First": "Chanda",
		"Last": "Buckley",
		"Address": "867-9353 Porttitor Ave",
		"City": "Harlingen",
		"Zip": "69493",
		"ID": "31966609"
	},
	{
		"First": "Abra",
		"Last": "Blackwell",
		"Address": "745-5550 Cum Road",
		"City": "Eckville",
		"Zip": "53300",
		"ID": "78784432"
	},
	{
		"First": "Fleur",
		"Last": "Bean",
		"Address": "Ap #838-8560 Netus Road",
		"City": "Gijón",
		"Zip": "45880",
		"ID": "61878225"
	},
	{
		"First": "Bruce",
		"Last": "Campbell",
		"Address": "Ap #844-889 Est Av.",
		"City": "Cossignano",
		"Zip": "75958",
		"ID": "78477845"
	},
	{
		"First": "Brenden",
		"Last": "Barber",
		"Address": "339-9080 Eu St.",
		"City": "Ramsey",
		"Zip": "53511",
		"ID": "23047805"
	},
	{
		"First": "Abraham",
		"Last": "Prince",
		"Address": "449-691 Elementum, St.",
		"City": "Siegendorf",
		"Zip": "52120",
		"ID": "92109241"
	},
	{
		"First": "Burke",
		"Last": "Sargent",
		"Address": "304-4334 Lectus Avenue",
		"City": "Ruda",
		"Zip": "88670",
		"ID": "43422565"
	},
	{
		"First": "Asher",
		"Last": "Waters",
		"Address": "526-8788 Torquent Ave",
		"City": "Mannekensvere",
		"Zip": "17423",
		"ID": "65054976"
	},
	{
		"First": "Bree",
		"Last": "Sawyer",
		"Address": "Ap #857-3909 Imperdiet Ave",
		"City": "Boise",
		"Zip": "21960",
		"ID": "49431276"
	},
	{
		"First": "Raphael",
		"Last": "Duke",
		"Address": "228-4951 Nisi. St.",
		"City": "Tufo",
		"Zip": "31744",
		"ID": "55635393"
	},
	{
		"First": "Kelsie",
		"Last": "Chan",
		"Address": "683-328 Enim. St.",
		"City": "Fontenoille",
		"Zip": "79322",
		"ID": "96810841"
	},
	{
		"First": "Eliana",
		"Last": "Maxwell",
		"Address": "2383 Metus Ave",
		"City": "Goes",
		"Zip": "85895",
		"ID": "43695198"
	},
	{
		"First": "Marny",
		"Last": "Howard",
		"Address": "503-9114 Nulla Avenue",
		"City": "H�rouxville",
		"Zip": "51093",
		"ID": "76202260"
	},
	{
		"First": "Allistair",
		"Last": "Schultz",
		"Address": "Ap #675-8390 Nam St.",
		"City": "Hamme",
		"Zip": "15228",
		"ID": "51409443"
	},
	{
		"First": "Urielle",
		"Last": "Harris",
		"Address": "4062 Donec St.",
		"City": "Saint-Pierre",
		"Zip": "86486",
		"ID": "08716812"
	},
	{
		"First": "Vivian",
		"Last": "Gordon",
		"Address": "Ap #166-8760 Purus Street",
		"City": "Tielrode",
		"Zip": "40908",
		"ID": "73677976"
	},
	{
		"First": "Cailin",
		"Last": "Gibbs",
		"Address": "P.O. Box 141, 6402 Vivamus St.",
		"City": "San Chirico Nuovo",
		"Zip": "24484",
		"ID": "06546897"
	},
	{
		"First": "Clio",
		"Last": "Keller",
		"Address": "8266 Semper St.",
		"City": "Mount Gambier",
		"Zip": "68504",
		"ID": "09713035"
	},
	{
		"First": "Hyacinth",
		"Last": "Acevedo",
		"Address": "3765 Cras St.",
		"City": "Codigoro",
		"Zip": "56369",
		"ID": "62204774"
	},
	{
		"First": "Iliana",
		"Last": "Acosta",
		"Address": "1064 Amet, Rd.",
		"City": "Clydebank",
		"Zip": "71775",
		"ID": "34189110"
	},
	{
		"First": "Jin",
		"Last": "Keller",
		"Address": "P.O. Box 611, 8104 Phasellus St.",
		"City": "Legal",
		"Zip": "75666",
		"ID": "42782342"
	},
	{
		"First": "Rahim",
		"Last": "Orr",
		"Address": "674-133 Nascetur Street",
		"City": "Pugwash",
		"Zip": "12935",
		"ID": "01452668"
	},
	{
		"First": "Giselle",
		"Last": "Lott",
		"Address": "P.O. Box 528, 8091 Ac, St.",
		"City": "Elx",
		"Zip": "53679",
		"ID": "81556892"
	},
	{
		"First": "Emi",
		"Last": "Lloyd",
		"Address": "Ap #695-3496 Magna. Road",
		"City": "Calice al Cornoviglio",
		"Zip": "72130",
		"ID": "92741876"
	},
	{
		"First": "Armand",
		"Last": "Nixon",
		"Address": "P.O. Box 346, 7159 Vulputate, St.",
		"City": "Castelluccio Superiore",
		"Zip": "54473",
		"ID": "82046403"
	},
	{
		"First": "Castor",
		"Last": "Gordon",
		"Address": "P.O. Box 273, 8953 Euismod Ave",
		"City": "Scala Coeli",
		"Zip": "77541",
		"ID": "52912034"
	},
	{
		"First": "Logan",
		"Last": "Pittman",
		"Address": "456-131 Non Rd.",
		"City": "Zierikzee",
		"Zip": "27138",
		"ID": "96136948"
	},
	{
		"First": "Jakeem",
		"Last": "Schultz",
		"Address": "Ap #455-2411 Cursus, Rd.",
		"City": "Lamont",
		"Zip": "65225",
		"ID": "95865499"
	},
	{
		"First": "Nora",
		"Last": "Buckner",
		"Address": "P.O. Box 220, 8097 Lacinia Ave",
		"City": "Redlands",
		"Zip": "69613",
		"ID": "59245999"
	},
	{
		"First": "Laura",
		"Last": "Ayers",
		"Address": "Ap #430-7896 Laoreet, Rd.",
		"City": "Billings",
		"Zip": "42291",
		"ID": "98502123"
	},
	{
		"First": "Clinton",
		"Last": "Velasquez",
		"Address": "Ap #355-7551 Massa. St.",
		"City": "Feltre",
		"Zip": "71293",
		"ID": "66364828"
	},
	{
		"First": "Joshua",
		"Last": "Fischer",
		"Address": "Ap #594-5917 Morbi Road",
		"City": "Castel Giorgio",
		"Zip": "90248",
		"ID": "57740992"
	},
	{
		"First": "Kadeem",
		"Last": "Deleon",
		"Address": "6411 Purus Ave",
		"City": "Heusden-Zolder",
		"Zip": "45185",
		"ID": "98941277"
	},
	{
		"First": "Avye",
		"Last": "Schwartz",
		"Address": "799-7841 Velit Ave",
		"City": "Villafranca Tirrena",
		"Zip": "37239",
		"ID": "61614183"
	},
	{
		"First": "Yolanda",
		"Last": "Cervantes",
		"Address": "Ap #372-4912 Sem Road",
		"City": "Southaven",
		"Zip": "67309",
		"ID": "38516354"
	},
	{
		"First": "Delilah",
		"Last": "Hartman",
		"Address": "Ap #477-2622 Tortor. St.",
		"City": "Etobicoke",
		"Zip": "36199",
		"ID": "94211565"
	}
]